[{"OBJECT_NAME":"STARLINK-5886","OBJECT_ID":"2023-058AK","EPOCH":"2026-03-20T18:01:59.860992","MEAN_MOTION":15.05646646,"ECCENTRICITY":0.0002552,"INCLINATION":97.6039,"RA_OF_ASC_NODE":82.1628,"ARG_OF_PERICENTER":91.2342,"MEAN_ANOMALY":268.9177,"EPHEMERIS_TYPE":0,"CLASSIFICATION_TYPE":"U","NORAD_CAT_ID":56350,"ELEMENT_SET_NO":999,"REV_AT_EPOCH":15986,"BSTAR":-1.148e-5,"MEAN_MOTION_DOT":-2.27e-6,"MEAN_MOTION_DDOT":0},{"OBJECT_NAME":"STARLINK-5891","OBJECT_ID":"2023-058AL","EPOCH":"2026-03-20T12:15:04.934592","MEAN_MOTION":15.05642107,"ECCENTRICITY":0.00018993,"INCLINATION":97.6039,"RA_OF_ASC_NODE":81.8681,"ARG_OF_PERICENTER":82.0464,"MEAN_ANOMALY":278.0978,"EPHEMERIS_TYPE":0,"CLASSIFICATION_TYPE":"U","NORAD_CAT_ID":56351,"ELEMENT_SET_NO":999,"REV_AT_EPOCH":15982,"BSTAR":7.08341e-7,"MEAN_MOTION_DOT":-5.1e-7,"MEAN_MOTION_DDOT":0},{"OBJECT_NAME":"STARLINK-5885","OBJECT_ID":"2023-058AM","EPOCH":"2026-03-20T18:16:53.228352","MEAN_MOTION":15.01262146,"ECCENTRICITY":0.0002644,"INCLINATION":97.6056,"RA_OF_ASC_NODE":81.0732,"ARG_OF_PERICENTER":98.8531,"MEAN_ANOMALY":261.2992,"EPHEMERIS_TYPE":0,"CLASSIFICATION_TYPE":"U","NORAD_CAT_ID":56352,"ELEMENT_SET_NO":999,"REV_AT_EPOCH":15979,"BSTAR":2.5466e-5,"MEAN_MOTION_DOT":2.69e-6,"MEAN_MOTION_DDOT":0},{"OBJECT_NAME":"STARLINK-5874","OBJECT_ID":"2023-058AN","EPOCH":"2026-03-20T21:02:10.654080","MEAN_MOTION":15.01262011,"ECCENTRICITY":0.0003166,"INCLINATION":97.6046,"RA_OF_ASC_NODE":81.2431,"ARG_OF_PERICENTER":75.3732,"MEAN_ANOMALY":284.7843,"EPHEMERIS_TYPE":0,"CLASSIFICATION_TYPE":"U","NORAD_CAT_ID":56353,"ELEMENT_SET_NO":999,"REV_AT_EPOCH":15981,"BSTAR":3.2705e-5,"MEAN_MOTION_DOT":3.62e-6,"MEAN_MOTION_DDOT":0},{"OBJECT_NAME":"STARLINK-5877","OBJECT_ID":"2023-058AP","EPOCH":"2026-03-20T17:30:05.033952","MEAN_MOTION":15.05649418,"ECCENTRICITY":0.0001885,"INCLINATION":97.6045,"RA_OF_ASC_NODE":82.0386,"ARG_OF_PERICENTER":88.0604,"MEAN_ANOMALY":272.0839,"EPHEMERIS_TYPE":0,"CLASSIFICATION_TYPE":"U","NORAD_CAT_ID":56354,"ELEMENT_SET_NO":999,"REV_AT_EPOCH":15985,"BSTAR":6.1738e-5,"MEAN_MOTION_DOT":8.3e-6,"MEAN_MOTION_DDOT":0},{"OBJECT_NAME":"STARLINK-5533","OBJECT_ID":"2023-058AQ","EPOCH":"2026-03-20T21:12:51.372288","MEAN_MOTION":15.01254377,"ECCENTRICITY":0.0001957,"INCLINATION":97.606,"RA_OF_ASC_NODE":81.231,"ARG_OF_PERICENTER":85.1581,"MEAN_ANOMALY":274.9867,"EPHEMERIS_TYPE":0,"CLASSIFICATION_TYPE":"U","NORAD_CAT_ID":56355,"ELEMENT_SET_NO":999,"REV_AT_EPOCH":15981,"BSTAR":1.5175e-5,"MEAN_MOTION_DOT":1.37e-6,"MEAN_MOTION_DDOT":0},{"OBJECT_NAME":"STARLINK-5535","OBJECT_ID":"2023-058AR","EPOCH":"2026-03-20T10:35:23.561952","MEAN_MOTION":15.05648943,"ECCENTRICITY":0.00018522,"INCLINATION":97.6033,"RA_OF_ASC_NODE":81.8065,"ARG_OF_PERICENTER":82.1885,"MEAN_ANOMALY":277.9552,"EPHEMERIS_TYPE":0,"CLASSIFICATION_TYPE":"U","NORAD_CAT_ID":56356,"ELEMENT_SET_NO":999,"REV_AT_EPOCH":15981,"BSTAR":5.6947226e-5,"MEAN_MOTION_DOT":7.61e-6,"MEAN_MOTION_DDOT":0},{"OBJECT_NAME":"STARLINK-5538","OBJECT_ID":"2023-058AS","EPOCH":"2026-03-20T20:57:27.355392","MEAN_MOTION":15.05644979,"ECCENTRICITY":0.0002118,"INCLINATION":97.6046,"RA_OF_ASC_NODE":82.3101,"ARG_OF_PERICENTER":89.7429,"MEAN_ANOMALY":270.404,"EPHEMERIS_TYPE":0,"CLASSIFICATION_TYPE":"U","NORAD_CAT_ID":56357,"ELEMENT_SET_NO":999,"REV_AT_EPOCH":15988,"BSTAR":-8.9975e-6,"MEAN_MOTION_DOT":-1.91e-6,"MEAN_MOTION_DDOT":0},{"OBJECT_NAME":"STARLINK-5482","OBJECT_ID":"2023-058AT","EPOCH":"2026-03-20T21:18:12.917664","MEAN_MOTION":15.01238019,"ECCENTRICITY":0.0001812,"INCLINATION":97.6067,"RA_OF_ASC_NODE":81.2239,"ARG_OF_PERICENTER":80.5673,"MEAN_ANOMALY":279.5756,"EPHEMERIS_TYPE":0,"CLASSIFICATION_TYPE":"U","NORAD_CAT_ID":56358,"ELEMENT_SET_NO":999,"REV_AT_EPOCH":15981,"BSTAR":-0.00018042,"MEAN_MOTION_DOT":-2.374e-5,"MEAN_MOTION_DDOT":0},{"OBJECT_NAME":"STARLINK-5551","OBJECT_ID":"2023-058AU","EPOCH":"2026-03-20T21:10:31.479456","MEAN_MOTION":15.01263391,"ECCENTRICITY":0.0002301,"INCLINATION":97.605,"RA_OF_ASC_NODE":81.2337,"ARG_OF_PERICENTER":84.1482,"MEAN_ANOMALY":276.0005,"EPHEMERIS_TYPE":0,"CLASSIFICATION_TYPE":"U","NORAD_CAT_ID":56359,"ELEMENT_SET_NO":999,"REV_AT_EPOCH":15981,"BSTAR":5.7363e-5,"MEAN_MOTION_DOT":6.79e-6,"MEAN_MOTION_DDOT":0},{"OBJECT_NAME":"STARLINK-5549","OBJECT_ID":"2023-058AV","EPOCH":"2026-03-20T18:17:56.849856","MEAN_MOTION":15.05648462,"ECCENTRICITY":0.000167,"INCLINATION":97.6037,"RA_OF_ASC_NODE":82.1487,"ARG_OF_PERICENTER":91.2129,"MEAN_ANOMALY":268.9289,"EPHEMERIS_TYPE":0,"CLASSIFICATION_TYPE":"U","NORAD_CAT_ID":56360,"ELEMENT_SET_NO":999,"REV_AT_EPOCH":15986,"BSTAR":5.1495e-5,"MEAN_MOTION_DOT":6.82e-6,"MEAN_MOTION_DDOT":0},{"OBJECT_NAME":"STARLINK-5550","OBJECT_ID":"2023-058AW","EPOCH":"2026-03-20T17:55:33.114720","MEAN_MOTION":15.012618,"ECCENTRICITY":0.0002331,"INCLINATION":97.6049,"RA_OF_ASC_NODE":81.1072,"ARG_OF_PERICENTER":85.6118,"MEAN_ANOMALY":274.5373,"EPHEMERIS_TYPE":0,"CLASSIFICATION_TYPE":"U","NORAD_CAT_ID":56361,"ELEMENT_SET_NO":999,"REV_AT_EPOCH":15979,"BSTAR":4.1636e-5,"MEAN_MOTION_DOT":4.77e-6,"MEAN_MOTION_DDOT":0},{"OBJECT_NAME":"STARLINK-5972","OBJECT_ID":"2023-058AX","EPOCH":"2026-03-20T10:27:25.299936","MEAN_MOTION":15.05656002,"ECCENTRICITY":0.00015049,"INCLINATION":97.6033,"RA_OF_ASC_NODE":81.8146,"ARG_OF_PERICENTER":91.6049,"MEAN_ANOMALY":268.535,"EPHEMERIS_TYPE":0,"CLASSIFICATION_TYPE":"U","NORAD_CAT_ID":56362,"ELEMENT_SET_NO":999,"REV_AT_EPOCH":15981,"BSTAR":-1.2187822e-5,"MEAN_MOTION_DOT":-2.37e-6,"MEAN_MOTION_DDOT":0},{"OBJECT_NAME":"STARLINK-6156","OBJECT_ID":"2023-061A","EPOCH":"2026-03-20T20:00:01.999008","MEAN_MOTION":15.24415549,"ECCENTRICITY":0.0001742,"INCLINATION":42.9994,"RA_OF_ASC_NODE":135.2662,"ARG_OF_PERICENTER":265.8779,"MEAN_ANOMALY":339.2022,"EPHEMERIS_TYPE":0,"CLASSIFICATION_TYPE":"U","NORAD_CAT_ID":56374,"ELEMENT_SET_NO":999,"REV_AT_EPOCH":581,"BSTAR":0.030412,"MEAN_MOTION_DOT":0.00814302,"MEAN_MOTION_DDOT":0},{"OBJECT_NAME":"STARLINK-6158","OBJECT_ID":"2023-061B","EPOCH":"2026-03-20T10:05:54.815712","MEAN_MOTION":15.26742957,"ECCENTRICITY":0.00012721,"INCLINATION":43.0014,"RA_OF_ASC_NODE":137.0565,"ARG_OF_PERICENTER":265.2944,"MEAN_ANOMALY":94.7763,"EPHEMERIS_TYPE":0,"CLASSIFICATION_TYPE":"U","NORAD_CAT_ID":56375,"ELEMENT_SET_NO":999,"REV_AT_EPOCH":15839,"BSTAR":9.9789987e-5,"MEAN_MOTION_DOT":2.418e-5,"MEAN_MOTION_DDOT":0},{"OBJECT_NAME":"STARLINK-6188","OBJECT_ID":"2023-061C","EPOCH":"2026-03-20T20:29:39.565824","MEAN_MOTION":15.26742807,"ECCENTRICITY":0.00015,"INCLINATION":42.9985,"RA_OF_ASC_NODE":134.2874,"ARG_OF_PERICENTER":292.1075,"MEAN_ANOMALY":67.9617,"EPHEMERIS_TYPE":0,"CLASSIFICATION_TYPE":"U","NORAD_CAT_ID":56376,"ELEMENT_SET_NO":999,"REV_AT_EPOCH":15846,"BSTAR":-1.1836e-5,"MEAN_MOTION_DOT":-5.77e-6,"MEAN_MOTION_DDOT":0},{"OBJECT_NAME":"STARLINK-6189","OBJECT_ID":"2023-061D","EPOCH":"2026-03-20T20:00:01.999008","MEAN_MOTION":15.24099877,"ECCENTRICITY":0.0002146,"INCLINATION":42.9999,"RA_OF_ASC_NODE":135.0535,"ARG_OF_PERICENTER":281.9948,"MEAN_ANOMALY":52.7047,"EPHEMERIS_TYPE":0,"CLASSIFICATION_TYPE":"U","NORAD_CAT_ID":56377,"ELEMENT_SET_NO":999,"REV_AT_EPOCH":571,"BSTAR":0.028275,"MEAN_MOTION_DOT":0.00754733,"MEAN_MOTION_DDOT":0}]
