STARLINK-5886           
1 56350U 23058AK  26079.75138728 -.00000227  00000+0 -11480-4 0  9992
2 56350  97.6039  82.1628 0002552  91.2342 268.9177 15.05646646159869
STARLINK-5891           
1 56351U 23058AL  26079.51047378 -.00000051  00000+0  70834-6 0  9991
2 56351  97.6039  81.8681 0001899  82.0464 278.0978 15.05642107159826
STARLINK-5885           
1 56352U 23058AM  26079.76172718  .00000269  00000+0  25466-4 0  9995
2 56352  97.6056  81.0732 0002644  98.8531 261.2992 15.01262146159797
STARLINK-5874           
1 56353U 23058AN  26079.87651220  .00000362  00000+0  32705-4 0  9996
2 56353  97.6046  81.2431 0003166  75.3732 284.7843 15.01262011159817
STARLINK-5877           
1 56354U 23058AP  26079.72922493  .00000830  00000+0  61738-4 0  9992
2 56354  97.6045  82.0386 0001885  88.0604 272.0839 15.05649418159853
STARLINK-5533           
1 56355U 23058AQ  26079.88392792  .00000137  00000+0  15175-4 0  9997
2 56355  97.6060  81.2310 0001957  85.1581 274.9867 15.01254377159811
STARLINK-5535           
1 56356U 23058AR  26079.44124493  .00000761  00000+0  56947-4 0  9996
2 56356  97.6033  81.8065 0001852  82.1885 277.9552 15.05648943159817
STARLINK-5538           
1 56357U 23058AS  26079.87323328 -.00000191  00000+0 -89975-5 0  9999
2 56357  97.6046  82.3101 0002118  89.7429 270.4040 15.05644979159884
STARLINK-5482           
1 56358U 23058AT  26079.88764951 -.00002374  00000+0 -18042-3 0  9992
2 56358  97.6067  81.2239 0001812  80.5673 279.5756 15.01238019159815
STARLINK-5551           
1 56359U 23058AU  26079.88230879  .00000679  00000+0  57363-4 0  9994
2 56359  97.6050  81.2337 0002301  84.1482 276.0005 15.01263391159819
STARLINK-5549           
1 56360U 23058AV  26079.76246354  .00000682  00000+0  51495-4 0  9992
2 56360  97.6037  82.1487 0001670  91.2129 268.9289 15.05648462159866
STARLINK-5550           
1 56361U 23058AW  26079.74691105  .00000477  00000+0  41636-4 0  9997
2 56361  97.6049  81.1072 0002331  85.6118 274.5373 15.01261800159791
STARLINK-5972           
1 56362U 23058AX  26079.43570949 -.00000237  00000+0 -12188-4 0  9992
2 56362  97.6033  81.8146 0001504  91.6049 268.5350 15.05656002159812
STARLINK-6156           
1 56374U 23061A   26079.83335647  .00814302  00000+0  30412-1 0  9998
2 56374  42.9994 135.2662 0001742 265.8779 339.2022 15.24415549  5812
STARLINK-6158           
1 56375U 23061B   26079.42077333  .00002418  00000+0  99790-4 0  9993
2 56375  43.0014 137.0565 0001272 265.2944  94.7763 15.26742957158391
STARLINK-6188           
1 56376U 23061C   26079.85393016 -.00000577  00000+0 -11836-4 0  9991
2 56376  42.9985 134.2874 0001500 292.1075  67.9617 15.26742807158469
STARLINK-6189           
1 56377U 23061D   26079.83335647  .00754733  00000+0  28275-1 0  9996
2 56377  42.9999 135.0535 0002146 281.9948  52.7047 15.24099877  5718
